COSMOS 2084             
1 20663U 90055A   26143.82680433  .00001437  00000+0  11191-3 0  9996
2 20663  62.7890  79.2282 0006311 237.4531 122.5961 15.05996430947634
SL-6 R/B(2)             
1 20666U 90055D   26143.84723471  .00001217  00000+0  10138-3 0  9997
2 20666  62.7829 358.1973 0036751   1.6475 358.4738 15.03904031949496
SL-8 R/B                
1 20775U 90078B   26143.84811912  .00014948  00000+0  42364-3 0  9992
2 20775  82.9029 183.6177 0354604 120.3085 243.3722 14.91454712820491
SL-8 R/B                
1 21088U 91006B   26143.87559655 -.00000005  00000+0 -20667-4 0  9992
2 21088  82.9403 114.1199 0022275 180.8739 240.7265 13.77504547774420
OKEAN-3                 
1 21397U 91039A   26143.80871712  .00002553  00000+0  17667-3 0  9998
2 21397  82.5162 264.0181 0015546  75.8884 284.4069 15.05191431876331
SL-14 R/B               
1 21423U 91042B   26143.50713399  .00000247  00000+0  28183-4 0  9999
2 21423  82.4914 150.0409 0016957   0.8798 359.2443 14.81883966864159
ERS-1                   
1 21574U 91050A   26143.76757904  .00000157  00000+0  64881-4 0  9998
2 21574  98.7808 163.8680 0031454 341.7346  18.2709 14.39499192826530
ARIANE 40 R/B           
1 21610U 91050F   26143.70961494  .00000173  00000+0  64117-4 0  9994
2 21610  98.1891 193.0780 0002899 180.7112 179.4076 14.42939903829810
SL-8 R/B                
1 21876U 92008B   26143.70347302  .00000025  00000+0  10212-4 0  9991
2 21876  82.9283 211.9899 0033194 285.6114 187.3381 13.75973095719731
SL-8 R/B                
1 21938U 92020B   26143.83210235  .00000010  00000+0 -61205-5 0  9996
2 21938  82.9290  97.9465 0030499  87.9286 334.3485 13.75546744711465
USA 81                  
1 21949U 92023A   26143.82509872  .00000144  00000+0  45802-4 0  9999
2 21949  85.0066  88.0663 0002423 105.3238 254.8223 14.32390138105541
