[
    {
        "OBJECT_NAME": "COSMOS 2084",
        "OBJECT_ID": "1990-055A",
        "EPOCH": "2026-05-23T19:50:35.894112",
        "MEAN_MOTION": 15.0599643,
        "ECCENTRICITY": 0.0006311,
        "INCLINATION": 62.789,
        "RA_OF_ASC_NODE": 79.2282,
        "ARG_OF_PERICENTER": 237.4531,
        "MEAN_ANOMALY": 122.5961,
        "EPHEMERIS_TYPE": 0,
        "CLASSIFICATION_TYPE": "U",
        "NORAD_CAT_ID": 20663,
        "ELEMENT_SET_NO": 999,
        "REV_AT_EPOCH": 94763,
        "BSTAR": 0.00011191,
        "MEAN_MOTION_DOT": 1.437e-05,
        "MEAN_MOTION_DDOT": 0
    },
    {
        "OBJECT_NAME": "SL-6 R/B(2)",
        "OBJECT_ID": "1990-055D",
        "EPOCH": "2026-05-23T20:20:01.078944",
        "MEAN_MOTION": 15.03904031,
        "ECCENTRICITY": 0.0036751,
        "INCLINATION": 62.7829,
        "RA_OF_ASC_NODE": 358.1973,
        "ARG_OF_PERICENTER": 1.6475,
        "MEAN_ANOMALY": 358.4738,
        "EPHEMERIS_TYPE": 0,
        "CLASSIFICATION_TYPE": "U",
        "NORAD_CAT_ID": 20666,
        "ELEMENT_SET_NO": 999,
        "REV_AT_EPOCH": 94949,
        "BSTAR": 0.00010138,
        "MEAN_MOTION_DOT": 1.217e-05,
        "MEAN_MOTION_DDOT": 0
    },
    {
        "OBJECT_NAME": "SL-8 R/B",
        "OBJECT_ID": "1990-078B",
        "EPOCH": "2026-05-23T20:21:17.491968",
        "MEAN_MOTION": 14.91454712,
        "ECCENTRICITY": 0.0354604,
        "INCLINATION": 82.9029,
        "RA_OF_ASC_NODE": 183.6177,
        "ARG_OF_PERICENTER": 120.3085,
        "MEAN_ANOMALY": 243.3722,
        "EPHEMERIS_TYPE": 0,
        "CLASSIFICATION_TYPE": "U",
        "NORAD_CAT_ID": 20775,
        "ELEMENT_SET_NO": 999,
        "REV_AT_EPOCH": 82049,
        "BSTAR": 0.00042364,
        "MEAN_MOTION_DOT": 0.00014948,
        "MEAN_MOTION_DDOT": 0
    },
    {
        "OBJECT_NAME": "SL-8 R/B",
        "OBJECT_ID": "1991-006B",
        "EPOCH": "2026-05-23T21:00:51.541920",
        "MEAN_MOTION": 13.77504547,
        "ECCENTRICITY": 0.0022275,
        "INCLINATION": 82.9403,
        "RA_OF_ASC_NODE": 114.1199,
        "ARG_OF_PERICENTER": 180.8739,
        "MEAN_ANOMALY": 240.7265,
        "EPHEMERIS_TYPE": 0,
        "CLASSIFICATION_TYPE": "U",
        "NORAD_CAT_ID": 21088,
        "ELEMENT_SET_NO": 999,
        "REV_AT_EPOCH": 77442,
        "BSTAR": -2.0667e-05,
        "MEAN_MOTION_DOT": -5e-08,
        "MEAN_MOTION_DDOT": 0
    },
    {
        "OBJECT_NAME": "OKEAN-3",
        "OBJECT_ID": "1991-039A",
        "EPOCH": "2026-05-23T19:24:33.159168",
        "MEAN_MOTION": 15.05191431,
        "ECCENTRICITY": 0.0015546,
        "INCLINATION": 82.5162,
        "RA_OF_ASC_NODE": 264.0181,
        "ARG_OF_PERICENTER": 75.8884,
        "MEAN_ANOMALY": 284.4069,
        "EPHEMERIS_TYPE": 0,
        "CLASSIFICATION_TYPE": "U",
        "NORAD_CAT_ID": 21397,
        "ELEMENT_SET_NO": 999,
        "REV_AT_EPOCH": 87633,
        "BSTAR": 0.00017667,
        "MEAN_MOTION_DOT": 2.553e-05,
        "MEAN_MOTION_DDOT": 0
    },
    {
        "OBJECT_NAME": "SL-14 R/B",
        "OBJECT_ID": "1991-042B",
        "EPOCH": "2026-05-23T12:10:16.376736",
        "MEAN_MOTION": 14.81883966,
        "ECCENTRICITY": 0.0016957,
        "INCLINATION": 82.4914,
        "RA_OF_ASC_NODE": 150.0409,
        "ARG_OF_PERICENTER": 0.8798,
        "MEAN_ANOMALY": 359.2443,
        "EPHEMERIS_TYPE": 0,
        "CLASSIFICATION_TYPE": "U",
        "NORAD_CAT_ID": 21423,
        "ELEMENT_SET_NO": 999,
        "REV_AT_EPOCH": 86415,
        "BSTAR": 2.8183e-05,
        "MEAN_MOTION_DOT": 2.47e-06,
        "MEAN_MOTION_DDOT": 0
    },
    {
        "OBJECT_NAME": "ERS-1",
        "OBJECT_ID": "1991-050A",
        "EPOCH": "2026-05-23T18:25:18.829056",
        "MEAN_MOTION": 14.39499192,
        "ECCENTRICITY": 0.0031454,
        "INCLINATION": 98.7808,
        "RA_OF_ASC_NODE": 163.868,
        "ARG_OF_PERICENTER": 341.7346,
        "MEAN_ANOMALY": 18.2709,
        "EPHEMERIS_TYPE": 0,
        "CLASSIFICATION_TYPE": "U",
        "NORAD_CAT_ID": 21574,
        "ELEMENT_SET_NO": 999,
        "REV_AT_EPOCH": 82653,
        "BSTAR": 6.4881e-05,
        "MEAN_MOTION_DOT": 1.57e-06,
        "MEAN_MOTION_DDOT": 0
    },
    {
        "OBJECT_NAME": "ARIANE 40 R/B",
        "OBJECT_ID": "1991-050F",
        "EPOCH": "2026-05-23T17:01:50.730816",
        "MEAN_MOTION": 14.42939903,
        "ECCENTRICITY": 0.0002899,
        "INCLINATION": 98.1891,
        "RA_OF_ASC_NODE": 193.078,
        "ARG_OF_PERICENTER": 180.7112,
        "MEAN_ANOMALY": 179.4076,
        "EPHEMERIS_TYPE": 0,
        "CLASSIFICATION_TYPE": "U",
        "NORAD_CAT_ID": 21610,
        "ELEMENT_SET_NO": 999,
        "REV_AT_EPOCH": 82981,
        "BSTAR": 6.4117e-05,
        "MEAN_MOTION_DOT": 1.73e-06,
        "MEAN_MOTION_DDOT": 0
    },
    {
        "OBJECT_NAME": "SL-8 R/B",
        "OBJECT_ID": "1992-008B",
        "EPOCH": "2026-05-23T16:53:00.068928",
        "MEAN_MOTION": 13.75973095,
        "ECCENTRICITY": 0.0033194,
        "INCLINATION": 82.9283,
        "RA_OF_ASC_NODE": 211.9899,
        "ARG_OF_PERICENTER": 285.6114,
        "MEAN_ANOMALY": 187.3381,
        "EPHEMERIS_TYPE": 0,
        "CLASSIFICATION_TYPE": "U",
        "NORAD_CAT_ID": 21876,
        "ELEMENT_SET_NO": 999,
        "REV_AT_EPOCH": 71973,
        "BSTAR": 1.0212e-05,
        "MEAN_MOTION_DOT": 2.5e-07,
        "MEAN_MOTION_DDOT": 0
    },
    {
        "OBJECT_NAME": "SL-8 R/B",
        "OBJECT_ID": "1992-020B",
        "EPOCH": "2026-05-23T19:58:13.643040",
        "MEAN_MOTION": 13.75546744,
        "ECCENTRICITY": 0.0030499,
        "INCLINATION": 82.929,
        "RA_OF_ASC_NODE": 97.9465,
        "ARG_OF_PERICENTER": 87.9286,
        "MEAN_ANOMALY": 334.3485,
        "EPHEMERIS_TYPE": 0,
        "CLASSIFICATION_TYPE": "U",
        "NORAD_CAT_ID": 21938,
        "ELEMENT_SET_NO": 999,
        "REV_AT_EPOCH": 71146,
        "BSTAR": -6.1205e-06,
        "MEAN_MOTION_DOT": 1e-07,
        "MEAN_MOTION_DDOT": 0
    },
    {
        "OBJECT_NAME": "USA 81",
        "OBJECT_ID": "1992-023A",
        "EPOCH": "2026-05-23T19:48:08.529408",
        "MEAN_MOTION": 14.32390138,
        "ECCENTRICITY": 0.0002423,
        "INCLINATION": 85.0066,
        "RA_OF_ASC_NODE": 88.0663,
        "ARG_OF_PERICENTER": 105.3238,
        "MEAN_ANOMALY": 254.8223,
        "EPHEMERIS_TYPE": 0,
        "CLASSIFICATION_TYPE": "U",
        "NORAD_CAT_ID": 21949,
        "ELEMENT_SET_NO": 999,
        "REV_AT_EPOCH": 10554,
        "BSTAR": 4.5802e-05,
        "MEAN_MOTION_DOT": 1.44e-06,
        "MEAN_MOTION_DDOT": 0
    }
]